NORAD_CAT_ID,OBJECT_NAME,OBJECT_TYPE,EPOCH,MEAN_MOTION,ECCENTRICITY,INCLINATION,RA_OF_ASC_NODE,ARG_OF_PERICENTER,MEAN_ANOMALY,BSTAR,MEAN_MOTION_DOT,MEAN_MOTION_DDOT,TLE_LINE0,TLE_LINE1,TLE_LINE2,SEMIMAJOR_AXIS,PERIOD,APOGEE,PERIGEE,DECAYED
55310.0,STARLINK-5309,PAYLOAD,2024-02-24 19:21:08,14.9832848,0.0003014,69.9984,80.135,270.2063,89.8751,-4.011e-06,-1.41e-06,0.0,0 STARLINK-5309,1 55310U 23010AT  24055.80634440 -.00000141  00000-0 -40110-5 0  9994,2 55310  69.9984  80.1350 0003014 270.2063  89.8751 14.98328480 62346,6950.198,96.107,574.157,569.968,0.0
55310.0,STARLINK-5309,PAYLOAD,2024-02-25 11:22:28,14.98334469,0.0003025,69.9985,78.4519,270.6097,89.4715,2.7077e-05,2.3e-06,0.0,0 STARLINK-5309,1 55310U 23010AT  24056.47393966  .00000230  00000-0  27077-4 0  9996,2 55310  69.9985  78.4519 0003025 270.6097  89.4715 14.98334469 62123,6950.179,96.107,574.147,569.942,0.0
55310.0,STARLINK-5309,PAYLOAD,2024-02-25 12:58:36,14.98335377,0.0003034,69.9985,78.2836,270.6633,89.4178,3.6105e-05,3.38e-06,0.0,0 STARLINK-5309,1 55310U 23010AT  24056.54069866  .00000338  00000-0  36105-4 0  9994,2 55310  69.9985  78.2836 0003034 270.6633  89.4178 14.98335377 62457,6950.176,96.107,574.15,569.933,0.0
55310.0,STARLINK-5309,PAYLOAD,2024-02-25 14:34:44,14.98336147,0.0003033,69.9985,78.1153,270.6971,89.3841,4.4392e-05,4.37e-06,0.0,0 STARLINK-5309,1 55310U 23010AT  24056.60745774  .00000437  00000-0  44392-4 0  9997,2 55310  69.9985  78.1153 0003033 270.6971  89.3841 14.98336147 62465,6950.174,96.107,574.147,569.931,0.0
55310.0,STARLINK-5309,PAYLOAD,2024-02-26 03:23:49,14.98325263,0.0003014,69.9985,76.7685,270.5615,89.5198,-7.4502e-06,-1.82e-06,0.0,0 STARLINK-5309,1 55310U 23010AT  24057.14154593 -.00000182  00000-0 -74502-5 0  9996,2 55310  69.9985  76.7685 0003014 270.5615  89.5198 14.98325263 62220,6950.208,96.107,574.167,569.978,0.0
55310.0,STARLINK-5309,PAYLOAD,2024-02-26 11:24:29,14.98334378,0.0003003,69.9985,75.9267,270.9349,89.1466,6.3831e-05,6.69e-06,0.0,0 STARLINK-5309,1 55310U 23010AT  24057.47533810  .00000669  00000-0  63831-4 0  9995,2 55310  69.9985  75.9267 0003003 270.9349  89.1466 14.98334378 62279,6950.179,96.107,574.131,569.957,0.0
55310.0,STARLINK-5309,PAYLOAD,2024-02-26 14:36:45,14.98335237,0.0003002,69.9985,75.59,271.0099,89.0716,7.0604e-05,7.5e-06,0.0,0 STARLINK-5309,1 55310U 23010AT  24057.60885696  .00000750  00000-0  70604-4 0  9999,2 55310  69.9985  75.5900 0003002 271.0099  89.0716 14.98335237 62612,6950.177,96.107,574.128,569.955,0.0
55310.0,STARLINK-5309,PAYLOAD,2024-02-26 17:49:02,14.98326617,0.0002974,69.9986,75.2535,269.7715,90.3104,-3.3e-05,-4.87e-06,0.0,0 STARLINK-5309,1 55310U 23010AT  24057.74238474 -.00000487  00000-0 -33000-4 0  9998,2 55310  69.9986  75.2535 0002974 269.7715  90.3104 14.98326617 62315,6950.203,96.107,574.135,570.001,0.0
55310.0,STARLINK-5309,PAYLOAD,2024-02-27 11:26:30,14.98332499,0.0002944,69.9987,73.4016,270.8772,89.205,3.3613e-06,-5.3e-07,0.0,0 STARLINK-5309,1 55310U 23010AT  24058.47674028 -.00000053  00000-0  33613-5 0  9997,2 55310  69.9987  73.4016 0002944 270.8772  89.2050 14.98332499 62427,6950.185,96.107,574.096,570.004,0.0
55310.0,STARLINK-5309,PAYLOAD,2024-02-27 14:38:46,14.98332955,0.0002938,69.9987,73.065,271.7173,88.3649,6.8821e-06,-1.1e-07,0.0,0 STARLINK-5309,1 55310U 23010AT  24058.61025972 -.00000011  00000-0  68821-5 0  9994,2 55310  69.9987  73.0650 0002938 271.7173  88.3649 14.98332955 62763,6950.184,96.107,574.091,570.007,0.0
55310.0,STARLINK-5309,PAYLOAD,2024-02-27 17:51:02,14.98330823,0.0002949,69.9987,72.7282,270.906,89.1761,-4.5671e-05,-6.38e-06,0.0,0 STARLINK-5309,1 55310U 23010AT  24058.74378202 -.00000638  00000-0 -45671-4 0  9998,2 55310  69.9987  72.7282 0002949 270.9060  89.1761 14.98330823 62786,6950.19,96.107,574.105,570.006,0.0
55310.0,STARLINK-5309,PAYLOAD,2024-02-28 11:28:31,14.98333233,0.000294,69.9987,70.8768,269.604,90.4782,6.9223e-06,-1e-07,0.0,0 STARLINK-5309,1 55310U 23010AT  24059.47813883 -.00000010  00000-0  69223-5 0  9991,2 55310  69.9987  70.8768 0002940 269.6040  90.4782 14.98333233 62571,6950.183,96.107,574.091,570.005,0.0
55310.0,STARLINK-5309,PAYLOAD,2024-02-28 13:04:39,14.98333689,0.0002931,69.9987,70.7085,269.2278,90.8545,1.2698e-05,5.9e-07,0.0,0 STARLINK-5309,1 55310U 23010AT  24059.54489822  .00000059  00000-0  12698-4 0  9996,2 55310  69.9987  70.7085 0002931 269.2278  90.8545 14.98333689 62904,6950.181,96.107,574.084,570.009,0.0
55310.0,STARLINK-5309,PAYLOAD,2024-02-28 17:53:03,14.98329162,0.0002966,69.9986,70.2035,270.055,90.0269,-7.0907e-05,-9.39e-06,0.0,0 STARLINK-5309,1 55310U 23010AT  24059.74518297 -.00000939  00000-0 -70907-4 0  9993,2 55310  69.9986  70.2035 0002966 270.0550  90.0269 14.98329162 62933,6950.195,96.107,574.122,569.999,0.0
55310.0,STARLINK-5309,PAYLOAD,2024-02-29 03:29:52,14.98325481,0.0002977,69.9986,69.1935,268.3924,91.6894,1.2292e-05,5.4e-07,0.0,0 STARLINK-5309,1 55310U 23010AT  24060.14574356  .00000054  00000-0  12292-4 0  9996,2 55310  69.9986  69.1935 0002977 268.3924  91.6894 14.98325481 62678,6950.207,96.107,574.141,570.003,0.0
55310.0,STARLINK-5309,PAYLOAD,2024-02-29 14:42:48,14.98330784,0.0002979,69.9987,68.0152,268.9886,91.0932,9.2172e-06,1.7e-07,0.0,0 STARLINK-5309,1 55310U 23010AT  24060.61306058  .00000017  00000-0  92172-5 0  9995,2 55310  69.9987  68.0152 0002979 268.9886  91.0932 14.98330784 63066,6950.19,96.107,574.126,569.985,0.0
55310.0,STARLINK-5309,PAYLOAD,2024-03-01 03:31:53,14.98326728,0.0002968,69.9988,66.6685,269.1924,90.8895,-1.3394e-06,-1.09e-06,0.0,0 STARLINK-5309,1 55310U 23010AT  24061.14714384 -.00000109  00000-0 -13394-5 0  9992,2 55310  69.9988  66.6685 0002968 269.1924  90.8895 14.98326728 62827,6950.203,96.107,574.131,570.005,0.0
55310.0,STARLINK-5309,PAYLOAD,2024-03-01 14:44:49,14.98330514,0.0002976,69.9988,65.4901,269.5491,90.5327,-5.6007e-06,-1.6e-06,0.0,0 STARLINK-5309,1 55310U 23010AT  24061.61446128 -.00000160  00000-0 -56007-5 0  9997,2 55310  69.9988  65.4901 0002976 269.5491  90.5327 14.98330514 63216,6950.191,96.107,574.125,569.988,0.0
55310.0,STARLINK-5309,PAYLOAD,2024-03-01 17:57:05,14.98329464,0.0002976,69.9988,65.1534,269.3061,90.7757,-1.8377e-05,-3.12e-06,0.0,0 STARLINK-5309,1 55310U 23010AT  24061.74798222 -.00000312  00000-0 -18377-4 0  9992,2 55310  69.9988  65.1534 0002976 269.3061  90.7757 14.98329464 63239,6950.195,96.107,574.128,569.991,0.0
55310.0,STARLINK-5309,PAYLOAD,2024-03-02 03:33:53,14.98328635,0.0002992,69.9989,64.1435,269.338,90.7436,4.9565e-05,4.98e-06,0.0,0 STARLINK-5309,1 55310U 23010AT  24062.14854126  .00000498  00000-0  49565-4 0  9999,2 55310  69.9989  64.1435 0002992 269.3380  90.7436 14.98328635 62974,6950.197,96.107,574.142,569.983,0.0
55310.0,STARLINK-5309,PAYLOAD,2024-03-02 09:58:25,14.98333048,0.0002926,69.9989,63.4701,267.8903,92.1921,4.9767e-05,5.01e-06,0.0,0 STARLINK-5309,1 55310U 23010AT  24062.41557825  .00000501  00000-0  49767-4 0  9994,2 55310  69.9989  63.4701 0002926 267.8903  92.1921 14.98333048 63333,6950.183,96.107,574.082,570.015,0.0
55310.0,STARLINK-5309,PAYLOAD,2024-03-03 03:35:55,14.98329485,0.0002976,69.999,61.6185,269.6782,90.4036,-1.7418e-05,-3.01e-06,0.0,0 STARLINK-5309,1 55310U 23010AT  24063.14994226 -.00000301  00000-0 -17418-4 0  9993,2 55310  69.9990  61.6185 0002976 269.6782  90.4036 14.98329485 63126,6950.194,96.107,574.128,569.991,0.0
55310.0,STARLINK-5309,PAYLOAD,2024-03-03 10:00:27,14.98331125,0.0002974,69.999,60.9453,269.966,90.1158,2.7205e-07,-9e-07,0.0,0 STARLINK-5309,1 55310U 23010AT  24063.41698072 -.00000090  00000-0  27205-6 0  9994,2 55310  69.9990  60.9453 0002974 269.9660  90.1158 14.98331125 63487,6950.189,96.107,574.121,569.987,0.0
55310.0,STARLINK-5309,PAYLOAD,2024-03-04 03:37:55,14.98333327,0.0003069,69.9995,59.0939,267.0341,93.0467,8.3381e-05,9.02e-06,0.0,0 STARLINK-5309,1 55310U 23010AT  24064.15133526  .00000902  00000-0  83381-4 0  9990,2 55310  69.9995  59.0939 0003069 267.0341  93.0467 14.98333327 63279,6950.183,96.107,574.181,569.915,0.0
55310.0,STARLINK-5309,PAYLOAD,2024-03-04 08:26:18,14.9835225,0.0002402,69.9996,58.5883,262.7285,97.3601,-0.00013211,-1.67e-05,0.0,0 STARLINK-5309,1 55310U 23010AT  24064.35160831 -.00001670  00000-0 -13211-3 0  9990,2 55310  69.9996  58.5883 0002402 262.7285  97.3601 14.98352250 63308,6950.124,96.106,573.659,570.32,0.0
55310.0,STARLINK-5309,PAYLOAD,2024-03-04 16:27:00,14.98332634,0.0002391,70.0012,57.7455,287.5644,72.5254,-1.7314e-06,-1.14e-06,0.0,0 STARLINK-5309,1 55310U 23010AT  24064.68541879 -.00000114  00000-0 -17314-5 0  9993,2 55310  70.0012  57.7455 0002391 287.5644  72.5254 14.98332634 63355,6950.185,96.107,573.712,570.388,0.0
55310.0,STARLINK-5309,PAYLOAD,2024-03-05 10:04:29,14.98322329,0.0002609,70.0004,55.8958,272.563,87.523,-7.3883e-05,-9.74e-06,0.0,0 STARLINK-5309,1 55310U 23010AT  24065.41978671 -.00000974  00000-0 -73883-4 0  9995,2 55310  70.0004  55.8958 0002609 272.5630  87.5230 14.98322329 63781,6950.217,96.107,573.895,570.268,0.0
55310.0,STARLINK-5309,PAYLOAD,2024-03-05 16:29:01,14.98343257,0.0002611,70.001,55.2221,276.9689,83.1173,-0.0002899,-3.551e-05,0.0,0 STARLINK-5309,1 55310U 23010AT  24065.68681863 -.00003551  00000-0 -28990-3 0  9990,2 55310  70.0010  55.2221 0002611 276.9689  83.1173 14.98343257 63501,6950.152,96.106,573.832,570.202,0.0
55310.0,STARLINK-5309,PAYLOAD,2024-03-06 08:30:21,14.98338561,0.0002804,70.0001,53.5395,272.1402,87.9436,-1.2079e-05,-2.37e-06,0.0,0 STARLINK-5309,1 55310U 23010AT  24066.35441277 -.00000237  00000-0 -12079-4 0  9998,2 55310  70.0001  53.5395 0002804 272.1402  87.9436 14.98338561 63921,6950.166,96.106,573.98,570.083,0.0
55310.0,STARLINK-5309,PAYLOAD,2024-03-07 03:43:58,14.98321286,0.0002874,70.0,51.5191,272.1242,87.9588,2.9943e-05,2.64e-06,0.0,0 STARLINK-5309,1 55310U 23010AT  24067.15554234  .00000264  00000-0  29943-4 0  9991,2 55310  70.0000  51.5191 0002874 272.1242  87.9588 14.98321286 63723,6950.22,96.108,574.082,570.087,0.0
